25319,IRIDIUM 69,1998,100.03,-1.0,-,86.4,Inactive,0,LEO,PRC,USA,Unknown,Unknown,Long March,1 25319U 98026A   23274.94014207  .00000985  00000+0  30933-3 0  9992,2 25319  86.4044 358.7402 0000287   1.2560 358.8640 14.39589686333459,14.39589686,2.87e-05,LEO
25320,IRIDIUM 71,1998,100.01,-1.0,-,86.4,Inactive,0,LEO,PRC,USA,Unknown,Unknown,Long March,1 25320U 98026B   23274.92900001  .00000837  00000+0  25997-3 0  9998,2 25320  86.4035 353.5826 0002551  40.4882 319.6506 14.39926817333729,14.39926817,0.0002551,LEO
25344,IRIDIUM 73,1998,99.31,-1.0,-,86.44,Inactive,0,LEO,USA,USA,Unknown,Unknown,Delta,1 25344U 98032C   23275.08445919  .00000776  00000+0  19523-3 0  9991,2 25344  86.4398 311.3807 0001716  81.9952 278.1448 14.50042897340371,14.50042897,0.0001716,LEO
25467,IRIDIUM 82,1998,95.84,-1.0,-,86.4,Inactive,0,LEO,USA,USA,Unknown,Unknown,Delta,1 25467U 98051A   23274.85342567  .00019122  00000+0  11255-2 0  9995,2 25467  86.3968  47.6478 0149330  87.9570 273.8756 15.02493629329450,15.02493629,0.014933,LEO
25527,IRIDIUM 2,1998,93.47,-1.0,-,85.52,Inactive,0,LEO,USA,USA,Unknown,Unknown,Delta,1 25527U 98066A   23275.01405435  .00039546  00000+0  96340-3 0  9992,2 25527  85.5155 106.5643 0003661 234.7789 125.3121 15.40743240367093,15.4074324,0.0003661,LEO
